OBJECT_NAME,OBJECT_ID,EPOCH,MEAN_MOTION,ECCENTRICITY,INCLINATION,RA_OF_ASC_NODE,ARG_OF_PERICENTER,MEAN_ANOMALY,EPHEMERIS_TYPE,CLASSIFICATION_TYPE,NORAD_CAT_ID,ELEMENT_SET_NO,REV_AT_EPOCH,BSTAR,MEAN_MOTION_DOT,MEAN_MOTION_DDOT
HAWK-5A,2022-057AB,2026-07-14T21:34:56.179776,15.52316910,.00033806,97.6620,356.5610,339.0948,21.0165,0,U,52757,999,23064,.17703502E-3,.10669E-3,0
HAWK-6B,2023-011A,2026-07-14T09:28:57.313920,15.23148645,.00040761,40.4968,193.3478,236.2544,123.7877,0,U,55324,999,19199,.10934345E-3,.2441E-4,0
HAWK-6C,2023-011C,2026-07-14T09:28:02.841312,15.23150953,.00045801,40.4960,190.1873,229.0104,131.0309,0,U,55326,999,19200,.10994346E-3,.2456E-4,0
HAWK-6A,2023-011D,2026-07-14T09:28:06.038976,15.23150323,.00041197,40.4969,191.8141,226.4695,133.5773,0,U,55327,999,19200,.11301398E-3,.253E-4,0
HAWK-7A,2023-054P,2026-07-14T18:07:15.224448,15.27629535,.00014623,97.2666,82.3917,336.0363,24.0808,0,U,56191,999,18123,.11646152E-3,.3073E-4,0
HAWK-7B,2023-054R,2026-07-14T18:07:09.237792,15.27627982,.00013614,97.2692,80.6653,18.0785,342.0503,0,U,56193,999,18123,.11882883E-3,.3137E-4,0
HAWK-7C,2023-054Y,2026-07-14T16:32:39.174720,15.27630255,.00009823,97.2667,81.3617,357.5569,2.5666,0,U,56200,999,18122,.11500136E-3,.3034E-4,0
